OBJECT_NAME,OBJECT_ID,EPOCH,MEAN_MOTION,ECCENTRICITY,INCLINATION,RA_OF_ASC_NODE,ARG_OF_PERICENTER,MEAN_ANOMALY,EPHEMERIS_TYPE,CLASSIFICATION_TYPE,NORAD_CAT_ID,ELEMENT_SET_NO,REV_AT_EPOCH,BSTAR,MEAN_MOTION_DOT,MEAN_MOTION_DDOT
ONEWEB-0309,2021-075W,2026-07-21T17:10:55.285824,13.17647743,.00023185,87.9153,358.9943,90.2139,269.9258,0,U,49095,999,23812,.80934144E-4,.44E-6,0
ONEWEB-0310,2021-075X,2026-07-22T07:18:47.030400,13.12443487,.00018857,87.8972,343.6976,97.6748,262.4595,0,U,49096,999,23979,.13053406E-2,.482E-5,0
ONEWEB-0311,2021-075Y,2026-07-22T07:55:26.364864,13.17648171,.0001554,87.9154,358.8723,82.0668,278.0640,0,U,49097,999,23825,.12263258E-3,.6E-6,0
ONEWEB-0312,2021-075Z,2026-07-22T08:17:18.874176,13.17648748,.00019244,87.9154,358.8794,85.5902,274.5450,0,U,49098,999,23823,.19050051E-3,.87E-6,0
ONEWEB-0313,2021-075AA,2026-07-22T10:13:44.286528,13.17647787,.00017957,87.9150,358.8682,90.9066,269.2271,0,U,49099,999,23823,.6200478E-4,.37E-6,0
ONEWEB-0314,2021-075AB,2026-07-21T17:01:11.898336,13.17647572,.00019634,87.9162,358.9875,82.3728,277.7627,0,U,49100,999,23811,.18367254E-4,.2E-6,0
ONEWEB-0315,2021-075AC,2026-07-21T19:41:03.748992,13.12443571,.00015034,87.8979,343.7608,90.4723,269.6578,0,U,49101,999,23971,-.4483334E-3,-.149E-5,0
ONEWEB-0316,2021-075AD,2026-07-22T06:57:16.035552,13.18687064,.00019666,87.9199,328.4768,98.8819,261.2536,0,U,49102,999,24183,.14269913E-3,.69E-6,0
ONEWEB-0317,2021-075AE,2026-07-21T19:45:56.666592,13.12443649,.00025401,87.8975,343.7830,103.4487,256.6925,0,U,49103,999,23973,-.22852434E-4,.4E-7,0
ONEWEB-0318,2021-075AF,2026-07-22T06:52:12.673920,13.18687250,.00017588,87.9203,328.4795,95.5937,264.5396,0,U,49104,999,24179,.10609431E-3,.55E-6,0
ONEWEB-0319,2021-075AG,2026-07-22T07:57:52.142400,13.17647783,.00013563,87.9153,358.8771,85.9061,274.2226,0,U,49105,999,23823,.17345149E-3,.8E-6,0
ONEWEB-0323,2021-075AH,2026-07-22T08:07:34.308192,13.12442517,.0001475,87.8979,343.6627,82.9293,277.2003,0,U,49106,999,23916,-.10869068E-2,-.378E-5,0
ONEWEB-0329,2021-075AJ,2026-07-21T08:28:28.731648,13.17648658,.00018831,87.9156,359.0723,88.3290,271.8057,0,U,49107,999,23808,.16311136E-3,.76E-6,0
ONEWEB-0330,2021-075AK,2026-07-21T08:33:32.280768,13.17647272,.00019534,87.9155,359.0832,88.9530,271.1825,0,U,49108,999,23812,.21839664E-3,.98E-6,0
ONEWEB-0292,2021-083A,2026-07-22T06:48:08.068608,13.13470818,.00017981,87.8979,313.2544,98.9715,261.1618,0,U,49186,999,23553,.58024741E-3,.225E-5,0
ONEWEB-0303,2021-083B,2026-07-22T14:04:24.403584,13.18685451,.00017564,87.9200,328.4184,95.6068,264.5264,0,U,49187,999,23464,.62581617E-4,.38E-6,0
ONEWEB-0306,2021-083C,2026-07-22T13:49:50.774304,13.18686128,.00021454,87.9205,328.4098,99.8317,260.3058,0,U,49188,999,23468,.82169824E-4,.45E-6,0
ONEWEB-0307,2021-083D,2026-07-22T06:39:36.088992,13.13469306,.00018697,87.8982,313.2536,95.9553,264.1790,0,U,49189,999,23553,.17536945E-3,.77E-6,0
ONEWEB-0320,2021-083E,2026-07-22T14:18:57.691584,13.18685310,.00019768,87.9193,328.4203,99.2892,260.8464,0,U,49190,999,23464,.24173654E-3,.108E-5,0
ONEWEB-0321,2021-083F,2026-07-22T10:16:14.820384,13.20770890,.00021716,87.9178,267.4124,102.1842,257.9535,0,U,49191,999,24148,.27908134E-3,.126E-5,0
ONEWEB-0322,2021-083G,2026-07-22T13:52:17.630112,13.13471546,.00021921,87.8978,313.1933,110.6682,249.4683,0,U,49192,999,23556,-.11685343E-3,-.3E-6,0
ONEWEB-0324,2021-083H,2026-07-22T08:12:20.508192,13.18686898,.00020389,87.9206,328.4617,95.8213,264.3152,0,U,49193,999,23463,-.4247232E-5,.11E-6,0
ONEWEB-0325,2021-083J,2026-07-22T08:17:10.744800,13.18687938,.00018475,87.9193,328.4660,100.7639,259.3701,0,U,49194,999,23464,.87563603E-4,.47E-6,0
ONEWEB-0326,2021-083K,2026-07-22T06:50:00.182976,13.18686974,.000163,87.9204,328.4786,95.4090,264.7229,0,U,49195,999,23462,.66835137E-4,.39E-6,0
ONEWEB-0327,2021-083L,2026-07-22T14:06:38.957760,13.18686981,.00014939,87.9194,328.4199,101.0031,259.1269,0,U,49196,999,23468,.1067397E-3,.55E-6,0
ONEWEB-0328,2021-083M,2026-07-22T08:08:34.863360,13.13470473,.00020223,87.8990,313.2173,96.6916,263.4443,0,U,49197,999,23551,-.76948128E-3,-.268E-5,0
ONEWEB-0331,2021-083N,2026-07-22T08:29:20.499936,13.18686104,.00016156,87.9204,328.4589,91.7554,268.3763,0,U,49198,999,23464,.11978636E-3,.6E-6,0
ONEWEB-0333,2021-083P,2026-07-22T08:01:16.017024,13.13470135,.00019206,87.8981,313.2413,101.2616,258.8729,0,U,49199,999,23552,-.77899585E-3,-.272E-5,0
ONEWEB-0334,2021-083Q,2026-07-22T05:09:35.015904,13.20769433,.00026303,87.9177,267.4648,112.0309,248.1104,0,U,49200,999,24141,.1618157E-3,.79E-6,0
ONEWEB-0335,2021-083R,2026-07-22T07:53:57.430752,13.13469494,.00018194,87.8980,313.2393,96.6593,263.4744,0,U,49201,999,23553,-.64641635E-3,-.223E-5,0
