{"epoch":1784762836,"count":18316,"objects":[{"id":"49095","name":"ONEWEB-0309","type":"PAYLOAD","l1":"1 49095U 21075W   26202.71591766  .00000044  00000-0  80934-4 0  9992","l2":"2 49095  87.9153 358.9943 0002318  90.2139 269.9258 13.17647743238121"},{"id":"49096","name":"ONEWEB-0310","type":"PAYLOAD","l1":"1 49096U 21075X   26203.30471100  .00000482  00000-0  13053-2 0  9990","l2":"2 49096  87.8972 343.6976 0001886  97.6748 262.4595 13.12443487239793"},{"id":"49097","name":"ONEWEB-0311","type":"PAYLOAD","l1":"1 49097U 21075Y   26203.33016626  .00000060  00000-0  12263-3 0  9997","l2":"2 49097  87.9154 358.8723 0001554  82.0668 278.0640 13.17648171238252"},{"id":"49098","name":"ONEWEB-0312","type":"PAYLOAD","l1":"1 49098U 21075Z   26203.34535734  .00000087  00000-0  19050-3 0  9995","l2":"2 49098  87.9154 358.8794 0001924  85.5902 274.5450 13.17648748238239"},{"id":"49099","name":"ONEWEB-0313","type":"PAYLOAD","l1":"1 49099U 21075AA  26203.42620702  .00000037  00000-0  62005-4 0  9999","l2":"2 49099  87.9150 358.8682 0001796  90.9066 269.2271 13.17647787238234"},{"id":"49100","name":"ONEWEB-0314","type":"PAYLOAD","l1":"1 49100U 21075AB  26202.70916549  .00000020  00000-0  18367-4 0  9993","l2":"2 49100  87.9162 358.9875 0001963  82.3728 277.7627 13.17647572238119"},{"id":"49101","name":"ONEWEB-0315","type":"PAYLOAD","l1":"1 49101U 21075AC  26202.82018228 -.00000149  00000-0 -44833-3 0  9994","l2":"2 49101  87.8979 343.7608 0001503  90.4723 269.6578 13.12443571239716"},{"id":"49102","name":"ONEWEB-0316","type":"PAYLOAD","l1":"1 49102U 21075AD  26203.28976893  .00000069  00000-0  14270-3 0  9998","l2":"2 49102  87.9199 328.4768 0001967  98.8819 261.2536 13.18687064241832"},{"id":"49103","name":"ONEWEB-0317","type":"PAYLOAD","l1":"1 49103U 21075AE  26202.82357253  .00000004  00000-0 -22852-4 0  9997","l2":"2 49103  87.8975 343.7830 0002540 103.4487 256.6925 13.12443649239735"},{"id":"49104","name":"ONEWEB-0318","type":"PAYLOAD","l1":"1 49104U 21075AF  26203.28625780  .00000055  00000-0  10609-3 0  9993","l2":"2 49104  87.9203 328.4795 0001759  95.5937 264.5396 13.18687250241796"},{"id":"49105","name":"ONEWEB-0319","type":"PAYLOAD","l1":"1 49105U 21075AG  26203.33185350  .00000080  00000-0  17345-3 0  9996","l2":"2 49105  87.9153 358.8771 0001356  85.9061 274.2226 13.17647783238237"},{"id":"49106","name":"ONEWEB-0323","type":"PAYLOAD","l1":"1 49106U 21075AH  26203.33859153 -.00000378  00000-0 -10869-2 0  9991","l2":"2 49106  87.8979 343.6627 0001475  82.9293 277.2003 13.12442517239163"},{"id":"49107","name":"ONEWEB-0329","type":"PAYLOAD","l1":"1 49107U 21075AJ  26202.35311032  .00000076  00000-0  16311-3 0  9994","l2":"2 49107  87.9156 359.0723 0001883  88.3290 271.8057 13.17648658238088"},{"id":"49108","name":"ONEWEB-0330","type":"PAYLOAD","l1":"1 49108U 21075AK  26202.35662362  .00000098  00000-0  21840-3 0  9997","l2":"2 49108  87.9155 359.0832 0001953  88.9530 271.1825 13.17647272238122"},{"id":"49186","name":"ONEWEB-0292","type":"PAYLOAD","l1":"1 49186U 21083A   26203.28342672  .00000225  00000-0  58025-3 0  9991","l2":"2 49186  87.8979 313.2544 0001798  98.9715 261.1618 13.13470818235533"},{"id":"49187","name":"ONEWEB-0303","type":"PAYLOAD","l1":"1 49187U 21083B   26203.58639356  .00000038  00000-0  62582-4 0  9999","l2":"2 49187  87.9200 328.4184 0001756  95.6068 264.5264 13.18685451234640"},{"id":"49188","name":"ONEWEB-0306","type":"PAYLOAD","l1":"1 49188U 21083C   26203.57628211  .00000045  00000-0  82170-4 0  9990","l2":"2 49188  87.9205 328.4098 0002145  99.8317 260.3058 13.18686128234687"},{"id":"49189","name":"ONEWEB-0307","type":"PAYLOAD","l1":"1 49189U 21083D   26203.27750103  .00000077  00000-0  17537-3 0  9993","l2":"2 49189  87.8982 313.2536 0001870  95.9553 264.1790 13.13469306235533"},{"id":"49190","name":"ONEWEB-0320","type":"PAYLOAD","l1":"1 49190U 21083E   26203.59650106  .00000108  00000-0  24174-3 0  9992","l2":"2 49190  87.9193 328.4203 0001977  99.2892 260.8464 13.18685310234642"},{"id":"49191","name":"ONEWEB-0321","type":"PAYLOAD","l1":"1 49191U 21083F   26203.42794931  .00000126  00000-0  27908-3 0  9998","l2":"2 49191  87.9178 267.4124 0002172 102.1842 257.9535 13.20770890241484"},{"id":"49192","name":"ONEWEB-0322","type":"PAYLOAD","l1":"1 49192U 21083G   26203.57798183 -.00000030  00000-0 -11685-3 0  9999","l2":"2 49192  87.8978 313.1933 0002192 110.6682 249.4683 13.13471546235567"},{"id":"49193","name":"ONEWEB-0324","type":"PAYLOAD","l1":"1 49193U 21083H   26203.34190403  .00000011  00000-0 -42472-5 0  9994","l2":"2 49193  87.9206 328.4617 0002039  95.8213 264.3152 13.18686898234632"},{"id":"49194","name":"ONEWEB-0325","type":"PAYLOAD","l1":"1 49194U 21083J   26203.34526325  .00000047  00000-0  87564-4 0  9999","l2":"2 49194  87.9193 328.4660 0001848 100.7639 259.3701 13.18687938234642"},{"id":"49195","name":"ONEWEB-0326","type":"PAYLOAD","l1":"1 49195U 21083K   26203.28472434  .00000039  00000-0  66835-4 0  9993","l2":"2 49195  87.9204 328.4786 0001630  95.4090 264.7229 13.18686974234627"},{"id":"49196","name":"ONEWEB-0327","type":"PAYLOAD","l1":"1 49196U 21083L   26203.58795090  .00000055  00000-0  10674-3 0  9990","l2":"2 49196  87.9194 328.4199 0001494 101.0031 259.1269 13.18686981234687"},{"id":"49197","name":"ONEWEB-0328","type":"PAYLOAD","l1":"1 49197U 21083M   26203.33929240 -.00000268  00000-0 -76948-3 0  9994","l2":"2 49197  87.8990 313.2173 0002022  96.6916 263.4443 13.13470473235511"},{"id":"49198","name":"ONEWEB-0331","type":"PAYLOAD","l1":"1 49198U 21083N   26203.35370949  .00000060  00000-0  11979-3 0  9994","l2":"2 49198  87.9204 328.4589 0001616  91.7554 268.3763 13.18686104234649"},{"id":"49199","name":"ONEWEB-0333","type":"PAYLOAD","l1":"1 49199U 21083P   26203.33421316 -.00000272  00000-0 -77900-3 0  9991","l2":"2 49199  87.8981 313.2413 0001921 101.2616 258.8729 13.13470135235528"},{"id":"49200","name":"ONEWEB-0334","type":"PAYLOAD","l1":"1 49200U 21083Q   26203.21498861  .00000079  00000-0  16182-3 0  9998","l2":"2 49200  87.9177 267.4648 0002630 112.0309 248.1104 13.20769433241410"},{"id":"49201","name":"ONEWEB-0335","type":"PAYLOAD","l1":"1 49201U 21083R   26203.32913693 -.00000223  00000-0 -64642-3 0  9993","l2":"2 49201  87.8980 313.2393 0001819  96.6593 263.4744 13.13469494235531"}]}